$$SOE
2461302.500000000, A.D. 2026-Sep-19 00:00:00.0000, 3.212440602691580E+08, -7.693975150813021E+07, -9.996279770548094E+06,
2461309.500000000, A.D. 2026-Sep-26 00:00:00.0000, 3.226600268045325E+08, -6.495113807357671E+07, -1.059317486687690E+07,
2461316.500000000, A.D. 2026-Oct-03 00:00:00.0000, 3.236374048264751E+08, -5.287429066806963E+07, -1.117566882896889E+07,
2461323.500000000, A.D. 2026-Oct-10 00:00:00.0000, 3.241700864133242E+08, -4.072484728605197E+07, -1.174280476693502E+07,
2461330.500000000, A.D. 2026-Oct-17 00:00:00.0000, 3.242524624216710E+08, -2.851889226077187E+07, -1.229362667063027E+07,
2461337.500000000, A.D. 2026-Oct-24 00:00:00.0000, 3.238794543830352E+08, -1.627294754247514E+07, -1.282718114251903E+07,
2461344.500000000, A.D. 2026-Oct-31 00:00:00.0000, 3.230465473114766E+08, -4.003961967480042E+06, -1.334251928338753E+07,
2461351.500000000, A.D. 2026-Nov-07 00:00:00.0000, 3.217498236520752E+08, 8.270701709270288E+06, -1.383869875859994E+07,
2461358.500000000, A.D. 2026-Nov-14 00:00:00.0000, 3.199859984293717E+08, 2.053328305937280E+07, -1.431478599219150E+07,
2461365.500000000, A.D. 2026-Nov-21 00:00:00.0000, 3.177524536240094E+08, 3.276564434433616E+07, -1.476985826638042E+07,
2461372.500000000, A.D. 2026-Nov-28 00:00:00.0000, 3.150472706054071E+08, 4.494929213695986E+07, -1.520300587989137E+07,
2461379.500000000, A.D. 2026-Dec-05 00:00:00.0000, 3.118692640309067E+08, 5.706539968093663E+07, -1.561333474898127E+07,
2461386.500000000, A.D. 2026-Dec-12 00:00:00.0000, 3.082180171394536E+08, 6.909483323203091E+07, -1.599996920795219E+07,
2461393.500000000, A.D. 2026-Dec-19 00:00:00.0000, 3.040939162993162E+08, 8.101818250670913E+07, -1.636205482962291E+07,
2461400.500000000, A.D. 2026-Dec-26 00:00:00.0000, 2.994981843937851E+08, 9.281579446981423E+07, -1.669876131622443E+07,
2461407.500000000, A.D. 2027-Jan-02 00:00:00.0000, 2.944329130240562E+08, 1.044678103475641E+08, -1.700928549243928E+07,
2461414.500000000, A.D. 2027-Jan-09 00:00:00.0000, 2.889010933275496E+08, 1.159542059378380E+08, -1.729285439850783E+07,
2461421.500000000, A.D. 2027-Jan-16 00:00:00.0000, 2.829066451081411E+08, 1.272548352495468E+08, -1.754872847267547E+07,
2461428.500000000, A.D. 2027-Jan-23 00:00:00.0000, 2.764544439680819E+08, 1.383494774223308E+08, -1.777620481504890E+07,
2461435.500000000, A.D. 2027-Jan-30 00:00:00.0000, 2.695503462602569E+08, 1.492178868339575E+08, -1.797462053661405E+07,
2461442.500000000, A.D. 2027-Feb-06 00:00:00.0000, 2.622012119069475E+08, 1.598398466477242E+08, -1.814335618555824E+07,
2461449.500000000, A.D. 2027-Feb-13 00:00:00.0000, 2.544149242304469E+08, 1.701952268828629E+08, -1.828183908711343E+07,
2461456.500000000, A.D. 2027-Feb-20 00:00:00.0000, 2.462004040303910E+08, 1.802640460459039E+08, -1.838954641894139E+07,
2461463.500000000, A.D. 2027-Feb-27 00:00:00.0000, 2.375676189284848E+08, 1.900265328979803E+08, -1.846600838729590E+07,
2461470.500000000, A.D. 2027-Mar-06 00:00:00.0000, 2.285275906304829E+08, 1.994631900031546E+08, -1.851081159752636E+07,
2461477.500000000, A.D. 2027-Mar-13 00:00:00.0000, 2.190923981391923E+08, 2.085548607792829E+08, -1.852360227490787E+07,
2461484.500000000, A.D. 2027-Mar-20 00:00:00.0000, 2.092751754499885E+08, 2.172827988445936E+08, -1.850408926927366E+07,
2461491.500000000, A.D. 2027-Mar-27 00:00:00.0000, 1.990901036257780E+08, 2.256287386898693E+08, -1.845204687518844E+07,
2461498.500000000, A.D. 2027-Apr-03 00:00:00.0000, 1.885523971873356E+08, 2.335749671594754E+08, -1.836731745806344E+07,
2461505.500000000, A.D. 2027-Apr-10 00:00:00.0000, 1.776782846581849E+08, 2.411043952512501E+08, -1.824981385770655E+07,
2461512.500000000, A.D. 2027-Apr-17 00:00:00.0000, 1.664849831160420E+08, 2.482006296687048E+08, -1.809952154062051E+07,
2461519.500000000, A.D. 2027-Apr-24 00:00:00.0000, 1.549906667185957E+08, 2.548480434781517E+08, -1.791650048240046E+07,
2461526.500000000, A.D. 2027-May-01 00:00:00.0000, 1.432144294569402E+08, 2.610318452889391E+08, -1.770088677608329E+07,
2461533.500000000, A.D. 2027-May-08 00:00:00.0000, 1.311762424714698E+08, 2.667381470797017E+08, -1.745289390710314E+07,
2461540.500000000, A.D. 2027-May-15 00:00:00.0000, 1.188969045368549E+08, 2.719540309788749E+08, -1.717281345588706E+07,
2461547.500000000, A.D. 2027-May-22 00:00:00.0000, 1.063979843155165E+08, 2.766676117558321E+08, -1.686101527223366E+07,
2461554.500000000, A.D. 2027-May-29 00:00:00.0000, 9.370175798132801E+07, 2.808680929417542E+08, -1.651794753119767E+07,
2461561.500000000, A.D. 2027-Jun-05 00:00:00.0000, 8.083114344001094E+07, 2.845458191160022E+08, -1.614413648511292E+07,
2461568.500000000, A.D. 2027-Jun-12 00:00:00.0000, 6.780962954433107E+07, 2.876923242109623E+08, -1.574018568344679E+07,
2461575.500000000, A.D. 2027-Jun-19 00:00:00.0000, 5.466120044614953E+07, 2.903003743719984E+08, -1.530677470228584E+07,
2461582.500000000, A.D. 2027-Jun-26 00:00:00.0000, 4.141025590816551E+07, 2.923640046414315E+08, -1.484465743237984E+07,
2461589.500000000, A.D. 2027-Jul-03 00:00:00.0000, 2.808152831456089E+07, 2.938785490672556E+08, -1.435465994482043E+07,
2461596.500000000, A.D. 2027-Jul-10 00:00:00.0000, 1.469999707907159E+07, 2.948406639024127E+08, -1.383767794940728E+07,
2461603.500000000, A.D. 2027-Jul-17 00:00:00.0000, 1.290801188364153E+06, 2.952483435792446E+08, -1.329467386797087E+07,
2461610.500000000, A.D. 2027-Jul-24 00:00:00.0000, -1.212084924189211E+07, 2.951009291953570E+08, -1.272667356075160E+07,
2461617.500000000, A.D. 2027-Jul-31 00:00:00.0000, -2.550976126234861E+07, 2.943991096417009E+08, -1.213476274766122E+07,
2461624.500000000, A.D. 2027-Aug-07 00:00:00.0000, -3.885084671035062E+07, 2.931449165350484E+08, -1.152008304316044E+07,
2461631.500000000, A.D. 2027-Aug-14 00:00:00.0000, -5.211921071654470E+07, 2.913417128158760E+08, -1.088382745333056E+07,
2461638.500000000, A.D. 2027-Aug-21 00:00:00.0000, -6.529023974458252E+07, 2.889941718229803E+08, -1.022723570576081E+07,
2461645.500000000, A.D. 2027-Aug-28 00:00:00.0000, -7.833968504529107E+07, 2.861082483040401E+08, -9.551589668452412E+06,
2461652.500000000, A.D. 2027-Sep-04 00:00:00.0000, -9.124374205323383E+07, 2.826911442132668E+08, -8.858208589812428E+06,
2461659.500000000, A.D. 2027-Sep-11 00:00:00.0000, -1.039791265128811E+08, 2.787512690356300E+08, -8.148444129217148E+06,
2461666.500000000, A.D. 2027-Sep-18 00:00:00.0000, -1.165231466608117E+08, 2.742981944456120E+08, -7.423675285867915E+06,
2461673.500000000, A.D. 2027-Sep-25 00:00:00.0000, -1.288537707631291E+08, 2.693426037392929E+08, -6.685303295986176E+06,
2461680.500000000, A.D. 2027-Oct-02 00:00:00.0000, -1.409496895314043E+08, 2.638962366291843E+08, -5.934746545098603E+06,
2461687.500000000, A.D. 2027-Oct-09 00:00:00.0000, -1.527903730667779E+08, 2.579718299920076E+08, -5.173435538418755E+06,
2461694.500000000, A.D. 2027-Oct-16 00:00:00.0000, -1.643561220168738E+08, 2.515830551305709E+08, -4.402807977944046E+06,
2461701.500000000, A.D. 2027-Oct-23 00:00:00.0000, -1.756281125095263E+08, 2.447444521702466E+08, -3.624304006102785E+06,
2461708.500000000, A.D. 2027-Oct-30 00:00:00.0000, -1.865884343881682E+08, 2.374713628262112E+08, -2.839361632760346E+06,
2461715.500000000, A.D. 2027-Nov-06 00:00:00.0000, -1.972201238878884E+08, 2.297798632882885E+08, -2.049412175952747E+06,
2461722.500000000, A.D. 2027-Nov-13 00:00:00.0000, -2.075071927812203E+08, 2.216866957553465E+08, -1.255875730298847E+06,
2461729.500000000, A.D. 2027-Nov-20 00:00:00.0000, -2.174346511838799E+08, 2.132091970075312E+08, -4.601571286452264E+05,
2461736.500000000, A.D. 2027-Nov-27 00:00:00.0000, -2.269885225594484E+08, 2.043652275073575E+08, 3.363576812938303E+05,
2461743.500000000, A.D. 2027-Dec-04 00:00:00.0000, -2.361558531705704E+08, 1.951731024495842E+08, 1.132305090820834E+06,
2461750.500000000, A.D. 2027-Dec-11 00:00:00.0000, -2.449247167844525E+08, 1.856515242659783E+08, 1.926347075489849E+06,
2461757.500000000, A.D. 2027-Dec-18 00:00:00.0000, -2.532842146464754E+08, 1.758195166616114E+08, 2.717174172760971E+06,
2461764.500000000, A.D. 2027-Dec-25 00:00:00.0000, -2.612244708911025E+08, 1.656963605467874E+08, 3.503508175307833E+06,
2461771.500000000, A.D. 2028-Jan-01 00:00:00.0000, -2.687366236939555E+08, 1.553015321980073E+08, 4.284104537644014E+06,
$$EOE